OPTICUBE 04             
1 41851U 16067D   19212.19705519 -.00000172  00000-0 -97154-5 0  9994
2 41851  97.9175 310.3255 0007856 239.6402 120.4043 14.96813212148273
AEROCUBE 8D             
1 41852U 16067E   19211.86806160  .00000040  00000-0  88465-5 0  9999
2 41852  97.9185 309.8175 0008608 240.5356 119.5006 14.96727405148203
AEROCUBE 8C             
1 41853U 16067F   19211.82514117  .00000669  00000-0  63931-4 0  9991
2 41853  97.9193 309.7068 0008544 240.7722 119.2645 14.96696121148195
PROMETHEUS 2-1          
1 41854U 16067G   19211.85313332 -.00000365  00000-0 -26484-4 0  9998
2 41854  97.9198 309.8888 0009095 242.5518 117.4779 14.96919647148208
PROMETHEUS 2-3          
1 41855U 16067H   19212.18955484 -.00000286  00000-0 -19578-4 0  9994
2 41855  97.9198 310.2470 0009370 241.6504 118.3772 14.96923890148256
INS-1B                  
1 41954U 17008G   19211.71503549  .00000697  00000-0  31674-4 0  9994
2 41954  97.3974 276.2019 0009250   8.9962 351.1440 15.24011112136209
BGUSAT                  
1 41999U 17008BD  19211.77018976  .00001164  00000-0  47772-4 0  9990
2 41999  97.4051 278.8034 0008571  23.3536 336.8090 15.26218408135718
DIDO-2                  
1 42000U 17008BE  19211.77139926  .00000494  00000-0  23340-4 0  9993
2 42000  97.3986 276.8070 0009144  27.3069 332.8647 15.23942015135616
PEASSS                  
1 42015U 17008BV  19211.77407994  .00000641  00000-0  28614-4 0  9995
2 42015  97.3996 277.8314 0007194  35.2136 324.9576 15.24917831136164
AL-FARABI 1             
1 42016U 17008BW  19211.75529054  .00000826  00000-0  35384-4 0  9993
2 42016  97.4011 278.4020 0006994  34.7975 325.3719 15.25566614136318
NAYIF-1 (EO-88)         
1 42017U 17008BX  19211.74188464  .00000838  00000-0  35824-4 0  9991
2 42017  97.4008 278.3991 0007001  35.3571 324.8130 15.25600171136330
ALTAIR PATHFINDER       
1 42711U 98067LS  19212.10775744  .00035287  00000-0  16164-3 0  9991
2 42711  51.6338  69.3574 0001292 292.2618  67.8247 15.83343765125806
NSIGHT                  
1 42726U 98067MF  19211.85827561  .00015748  00000-0  11903-3 0  9999
2 42726  51.6360  92.8189 0003757 345.2966  14.7922 15.72632357124450
UCLSAT                  
1 42765U 17036A   19211.72432072  .00000683  00000-0  32130-4 0  9992
2 42765  97.3483 268.8308 0013260  83.6526 276.6220 15.22797724117456
LITUANICASAT-2          
1 42768U 17036D   19211.70133343  .00001237  00000-0  55579-4 0  9990
2 42768  97.3518 268.4333 0016803  74.9204 285.3891 15.22890342116702
AALTO-1                 
1 42775U 17036L   19211.75731535  .00000446  00000-0  22896-4 0  9997
2 42775  97.3465 267.5143 0015673  75.0534 285.2436 15.21375593116600
URSA MAIOR              
1 42776U 17036M   19211.71438912  .00000489  00000-0  24715-4 0  9996
2 42776  97.3475 267.6336 0015493  75.1825 285.1126 15.21511133116608
COMPASS 2               
1 42777U 17036N   19211.84853958  .00000981  00000-0  44638-4 0  9995
2 42777  97.3516 269.0417 0014240  75.7479 284.5338 15.22968221116682
DIAMOND RED             
1 42783U 17036U   19211.71893776  .00000582  00000-0  28262-4 0  9992
2 42783  97.3483 268.3932 0013935  84.5453 275.7372 15.22246972116644
PEGASUS                 
1 42784U 17036V   19211.75563623  .00000658  00000-0  31291-4 0  9992
2 42784  97.3486 268.6686 0013806  84.0094 276.2716 15.22544893116663
DIAMOND GREEN           
1 42785U 17036W   19211.65199015  .00000567  00000-0  27580-4 0  9997
2 42785  97.3485 268.3531 0013838  85.2801 275.0016 15.22246950116701
DIAMOND BLUE            
1 42786U 17036X   19211.58542049  .00000571  00000-0  27764-4 0  9998
2 42786  97.3484 268.2859 0013679  85.7661 274.5139 15.22244704116698
NUDTSAT                 
1 42787U 17036Y   19211.92377135  .00001118  00000-0  49658-4 0  9993
2 42787  97.3514 269.5795 0012950  74.3896 285.8755 15.23535325116570
SUCHAI                  
1 42788U 17036Z   19211.68549998  .00000784  00000-0  36260-4 0  9998
2 42788  97.3491 268.9274 0013378  83.5455 276.7305 15.22969172116747
SKCUBE                  
1 42789U 17036AA  19211.70405406  .00000732  00000-0  34173-4 0  9991
2 42789  97.3487 268.8803 0013238  83.5515 276.7228 15.22865344116663
VZLUSAT-1               
1 42790U 17036AB  19211.71363032  .00000989  00000-0  44273-4 0  9998
2 42790  97.3503 269.3767 0012818  82.7766 277.4928 15.23528037116695
ROBUSTA-1B              
1 42792U 17036AD  19212.15592690  .00000811  00000-0  37339-4 0  9992
2 42792  97.3487 269.4805 0012815  82.7998 277.4695 15.23035534116759
CICERO 6                
1 42793U 17036AE  19211.70127922  .00000512  00000-0  24956-4 0  9994
2 42793  97.3470 268.7881 0012076  85.7929 274.4688 15.22616569116744
D-SAT                   
1 42794U 17036AF  19211.68186279  .00000093  00000-0  13589-4 0  9996
2 42794  97.5365 254.5292 0126549   2.4484 357.7327 14.91112432114593
CORVUS BC2              
1 42846U 17042X   19211.66287957  .00000117  00000-0  16858-4 0  9993
2 42846  97.5610 103.9826 0008079 276.9029  83.1271 14.91984490111275
CORVUS BC1              
1 42847U 17042Y   19211.68036296 -.00000091  00000-0 -36538-5 0  9995
2 42847  97.5610 104.1125 0007672 276.2926  83.7420 14.92084708111274
MIRATA                  
1 43015U 17073C   19211.83366004  .00000965  00000-0  80222-4 0  9993
2 43015  97.7182 131.4043 0256014  20.7948 340.3455 14.79034411 91528
MAKERSAT 0              
1 43016U 17073D   19211.71954147  .00000665  00000-0  56878-4 0  9999
2 43016  97.7215 131.4960 0258163  21.5771 339.6087 14.78773049 91500
ASTERIA                 
1 43020U 98067NH  19212.15561375  .00021353  00000-0  16517-3 0  9994
2 43020  51.6430 102.5446 0001071 291.9446  68.1438 15.71832254 96537
DELLINGR (RBLE)         
1 43021U 98067NJ  19212.15541916  .00005553  00000-0  64256-4 0  9992
2 43021  51.6387 117.4355 0001389 262.9303  97.1534 15.63602399 96338
AEROCUBE 7B (OCSD B)    
1 43042U 17071F   19211.58485726  .00001506  00000-0  45170-4 0  9991
2 43042  51.6384 208.0798 0004298 312.4375  47.6246 15.41357828 92547
AEROCUBE 7C (OCSD C)    
1 43043U 17071G   19211.51999677  .00001579  00000-0  46885-4 0  9994
2 43043  51.6385 208.4108 0004556 316.2844  43.7779 15.41360475 92504
CHEFSAT                 
1 43044U 17071H   19211.56694187  .00003037  00000-0  74397-4 0  9998
2 43044  51.6373 202.1037 0004461 315.9423  44.1207 15.44092236 92598
ASGARDIA 1              
1 43049U 17071N   19211.46859894  .00001506  00000-0  44970-4 0  9993
2 43049  51.6393 208.1008 0002256 340.0637  20.0260 15.41480857 92493
ISARA                   
1 43050U 17071P   19211.59610481  .00002912  00000-0  72837-4 0  9991
2 43050  51.6367 203.0017 0002176 338.8465  21.2431 15.43604619 92584
PROPCUBE 2 (FAUNA)      
1 43052U 17071R   19211.40182667  .00001550  00000-0  45611-4 0  9990
2 43052  51.6391 207.6734 0002170 336.4740  23.6146 15.41767768 92495
CORVUS BC3              
1 43118U 18004H   19211.79026293  .00000434  00000-0  21562-4 0  9993
2 43118  97.4842 279.0044 0012129 102.9273 257.3319 15.22882841 85888
MICROMAS-2A             
1 43131U 18004W   19212.15473129  .00001068  00000-0  46743-4 0  9995
2 43131  97.4870 280.1528 0011110 103.0734 257.1744 15.24206429 85982
SPACEBEE-4              
1 43139U 18004AE  19211.75836999  .00001482  00000-0  62158-4 0  9994
2 43139  97.4890 280.3003 0010565 106.4466 253.7933 15.25065548 85959
SPACEBEE-3              
1 43140U 18004AF  19211.65665725  .00001856  00000-0  75847-4 0  9996
2 43140  97.4900 280.4787 0010429 106.6150 253.6233 15.25612252 85956
SPACEBEE-2              
1 43141U 18004AG  19212.14673775  .00002124  00000-0  85929-4 0  9997
2 43141  97.4905 281.0639 0010358 105.0791 255.1594 15.25799983 86034
SPACEBEE-1              
1 43142U 18004AH  19211.77971394  .00002151  00000-0  86423-4 0  9994
2 43142  97.4910 280.8076 0010342 106.2924 253.9453 15.26005897 85974
CICERO 7                
1 43143U 18004AJ  19211.78064830  .00000885  00000-0  39115-4 0  9992
2 43143  97.4854 279.9940 0009171 111.4538 248.7678 15.24329070 85946
GOMX-4B                 
1 43196U 18015E   19211.92400225  .00000084  00000-0  63982-5 0  9991
2 43196  97.3956 338.8812 0019324 155.0951 205.1197 15.23971922 82772
GOMX-4A                 
1 43197U 18015F   19212.11960538  .00000176  00000-0  10183-4 0  9998
2 43197  97.3971 339.1035 0019647 154.3382 312.9885 15.24065912 82819
1KUNS-PF                
1 43466U 98067NP  19212.13865856  .00015067  00000-0  14177-3 0  9992
2 43466  51.6373 118.7870 0000396  69.8461 290.2578 15.67343880 69579
UBAKUSAT                
1 43467U 98067NQ  19212.05428411  .00008300  00000-0  93598-4 0  9993
2 43467  51.6374 124.2288 0001565 215.1850 144.9041 15.63486940 69507
BATSU-CS1 (IRAZU)       
1 43468U 98067NR  19211.21773299  .00018485  00000-0  15096-3 0  9999
2 43468  51.6362 119.3515 0000688  77.9640 282.1435 15.70639236169474
CUBERRT                 
1 43546U 98067NU  19211.77613743  .00004406  00000-0  48019-4 0  9994
2 43546  51.6383 126.1201 0003474 303.6423  56.4241 15.65780402 59589
TEMPEST-D               
1 43547U 98067NV  19211.80181468  .00002805  00000-0  42892-4 0  9997
2 43547  51.6388 135.2963 0004937 286.3728  73.6721 15.58271099 59146
RAINCUBE                
1 43548U 98067NW  19211.38266890  .00007134  00000-0  85647-4 0  9999
2 43548  51.6368 132.4772 0004484 298.2193  61.8348 15.62111234 59599
HALOSAT                 
1 43549U 98067NX  19211.26020868  .00007736  00000-0  92692-4 0  9996
2 43549  51.6375 133.1741 0004573 301.6132  58.4415 15.62017536 59130
ENDUROSAT ONE           
1 43551U 98067NZ  19211.23905069  .00009419  00000-0  10442-3 0  9993
2 43551  51.6374 130.7846 0004749 310.3522  49.7058 15.63732783 59579
EQUISAT                 
1 43552U 98067PA  19211.25364794  .00007506  00000-0  88959-4 0  9994
2 43552  51.6386 132.4078 0005172 307.9108  52.1418 15.62356143 59515
